{
    "links": {
        "self": "http://www.neowsapp.com/rest/v1/neo/3768843?api_key=iIulBulltgU6a56xZRHN4H3l9WmuAYTsLGpBGhQ2"
    },
    "id": "3768843",
    "neo_reference_id": "3768843",
    "name": "(2017 CR5)",
    "designation": "2017 CR5",
    "nasa_jpl_url": "http://ssd.jpl.nasa.gov/sbdb.cgi?sstr=3768843",
    "absolute_magnitude_h": 26.9,
    "estimated_diameter": {
        "kilometers": {
            "estimated_diameter_min": 0.0110803882,
            "estimated_diameter_max": 0.0247765013
        },
        "meters": {
            "estimated_diameter_min": 11.0803882126,
            "estimated_diameter_max": 24.7765012606
        },
        "miles": {
            "estimated_diameter_min": 0.0068850319,
            "estimated_diameter_max": 0.0153953994
        },
        "feet": {
            "estimated_diameter_min": 36.3529808636,
            "estimated_diameter_max": 81.2877363957
        }
    },
    "is_potentially_hazardous_asteroid": false,
    "close_approach_data": [
        {
            "close_approach_date": "2017-02-06",
            "close_approach_date_full": "2017-Feb-06 08:17",
            "epoch_date_close_approach": 1486369020000,
            "relative_velocity": {
                "kilometers_per_second": "7.0520930638",
                "kilometers_per_hour": "25387.5350296872",
                "miles_per_hour": "15774.8269744187"
            },
            "miss_distance": {
                "astronomical": "0.021256806",
                "lunar": "8.268897534",
                "kilometers": "3179972.90060322",
                "miles": "1975943.534715636"
            },
            "orbiting_body": "Earth"
        }
    ],
    "orbital_data": {
        "orbit_id": "2",
        "orbit_determination_date": "2017-04-06 08:20:13",
        "first_observation_date": "2017-02-06",
        "last_observation_date": "2017-02-09",
        "data_arc_in_days": 3,
        "observations_used": 13,
        "orbit_uncertainty": "8",
        "minimum_orbit_intersection": ".0212523",
        "jupiter_tisserand_invariant": "3.821",
        "epoch_osculation": "2457792.5",
        "eccentricity": ".4647585331713417",
        "semi_major_axis": "1.882013289408661",
        "inclination": "7.166856363148531",
        "ascending_node_longitude": "136.7751494851451",
        "orbital_period": "943.0450841141725",
        "perihelion_distance": "1.00733155361412",
        "perihelion_argument": ".2122863581169984",
        "aphelion_distance": "2.756695025203203",
        "perihelion_time": "2457790.437191488180",
        "mean_anomaly": ".7874608295665466",
        "mean_motion": ".3817420885430495",
        "equinox": "J2000",
        "orbit_class": {
            "orbit_class_type": "APO",
            "orbit_class_description": "Near-Earth asteroid orbits which cross the Earth’s orbit similar to that of 1862 Apollo",
            "orbit_class_range": "a (semi-major axis) > 1.0 AU; q (perihelion) < 1.017 AU"
        }
    },
    "is_sentry_object": false
}